{
  "norad_id": 58062,
  "name": "STARLINK-30588",
  "history": [
    {
      "epoch": "2026-04-15T04:43:38.390304Z",
      "apogee_km": 483.97517992594476,
      "perigee_km": 482.133636152028,
      "latitude_deg": 8.839110173907886e-06,
      "longitude_deg": -93.43265147765689,
      "height_km": 482.64944633381066,
      "semi_major_axis_km": 6861.191408038986,
      "eccentricity": 0.0001342,
      "inclination_deg": 43.0037,
      "raan_deg": 180.8398,
      "arg_perigee_deg": 281.4021,
      "mean_anomaly_deg": 78.668,
      "mean_motion_rev_day": 15.27578226
    },
    {
      "epoch": "2026-04-16T15:15:05.089248Z",
      "apogee_km": 483.91988425861564,
      "perigee_km": 482.20870065627787,
      "latitude_deg": 1.5846753525384962e-05,
      "longitude_deg": 99.16295949479014,
      "height_km": 482.8276190153366,
      "semi_major_axis_km": 6861.2012924574465,
      "eccentricity": 0.0001247,
      "inclination_deg": 43.0035,
      "raan_deg": 172.7145,
      "arg_perigee_deg": 270.9133,
      "mean_anomaly_deg": 89.1576,
      "mean_motion_rev_day": 15.27574925
    },
    {
      "epoch": "2026-04-17T14:47:25.345248Z",
      "apogee_km": 483.88871850862506,
      "perigee_km": 482.2008677875101,
      "latitude_deg": 1.3819674356134052e-05,
      "longitude_deg": 99.57274799915919,
      "height_km": 482.78958265642115,
      "semi_major_axis_km": 6861.181793148067,
      "eccentricity": 0.000123,
      "inclination_deg": 43.0034,
      "raan_deg": 167.1754,
      "arg_perigee_deg": 272.1833,
      "mean_anomaly_deg": 87.8878,
      "mean_motion_rev_day": 15.27581437
    },
    {
      "epoch": "2026-04-18T20:36:23.403744Z",
      "apogee_km": 484.20896756313414,
      "perigee_km": 481.92418677193746,
      "latitude_deg": 2.313527458246481e-05,
      "longitude_deg": 4.091743128440947,
      "height_km": 482.58848091280163,
      "semi_major_axis_km": 6861.2035771675355,
      "eccentricity": 0.0001665,
      "inclination_deg": 43.0049,
      "raan_deg": 160.1608,
      "arg_perigee_deg": 282.9268,
      "mean_anomaly_deg": 77.1398,
      "mean_motion_rev_day": 15.27574162
    },
    {
      "epoch": "2026-04-19T20:08:44.708640Z",
      "apogee_km": 483.72069474653745,
      "perigee_km": 482.4156935186138,
      "latitude_deg": 1.797394672653438e-05,
      "longitude_deg": 4.497543467920512,
      "height_km": 482.6668886790353,
      "semi_major_axis_km": 6861.205194132575,
      "eccentricity": 9.51e-05,
      "inclination_deg": 43.002,
      "raan_deg": 154.6221,
      "arg_perigee_deg": 285.8158,
      "mean_anomaly_deg": 74.2589,
      "mean_motion_rev_day": 15.27573622
    },
    {
      "epoch": "2026-04-20T13:24:27.897408Z",
      "apogee_km": 483.7220084991277,
      "perigee_km": 482.3499111306228,
      "latitude_deg": -2.339041816059066e-05,
      "longitude_deg": 100.79601970011377,
      "height_km": 482.76363452813314,
      "semi_major_axis_km": 6861.172959814875,
      "eccentricity": 9.999e-05,
      "inclination_deg": 43.0026,
      "raan_deg": 150.5595,
      "arg_perigee_deg": 274.0942,
      "mean_anomaly_deg": 85.9795,
      "mean_motion_rev_day": 15.27584387
    },
    {
      "epoch": "2026-04-21T19:13:26.450112Z",
      "apogee_km": 483.85089768140733,
      "perigee_km": 482.31535661695034,
      "latitude_deg": -3.0507977103370532e-05,
      "longitude_deg": 5.309228961297133,
      "height_km": 482.8482308951177,
      "semi_major_axis_km": 6861.220127149179,
      "eccentricity": 0.0001119,
      "inclination_deg": 43.0043,
      "raan_deg": 143.5412,
      "arg_perigee_deg": 270.884,
      "mean_anomaly_deg": 89.1883,
      "mean_motion_rev_day": 15.27568635
    },
    {
      "epoch": "2026-04-22T18:45:48.098016Z",
      "apogee_km": 483.2390712234792,
      "perigee_km": 482.92427851067623,
      "latitude_deg": 3.2280574433193953e-06,
      "longitude_deg": 5.714636297838831,
      "height_km": 482.7151276274824,
      "semi_major_axis_km": 6861.218674867077,
      "eccentricity": 2.294e-05,
      "inclination_deg": 42.9996,
      "raan_deg": 138.0035,
      "arg_perigee_deg": 25.6974,
      "mean_anomaly_deg": 334.3889,
      "mean_motion_rev_day": 15.2756912
    },
    {
      "epoch": "2026-04-24T11:33:53.346816Z",
      "apogee_km": 483.40938777098654,
      "perigee_km": 482.79324857001393,
      "latitude_deg": -1.744694379279362e-05,
      "longitude_deg": 102.40948516958245,
      "height_km": 483.1847299725637,
      "semi_major_axis_km": 6861.2383181705,
      "eccentricity": 4.49e-05,
      "inclination_deg": 43.0,
      "raan_deg": 128.3959,
      "arg_perigee_deg": 179.3317,
      "mean_anomaly_deg": 180.7535,
      "mean_motion_rev_day": 15.2756256
    },
    {
      "epoch": "2026-04-25T17:22:50.135232Z",
      "apogee_km": 484.0576677468789,
      "perigee_km": 482.11456935970455,
      "latitude_deg": -1.763289511003563e-05,
      "longitude_deg": 6.9392757135702245,
      "height_km": 482.68000503258224,
      "semi_major_axis_km": 6861.223118553291,
      "eccentricity": 0.0001416,
      "inclination_deg": 43.0033,
      "raan_deg": 121.3868,
      "arg_perigee_deg": 280.8693,
      "mean_anomaly_deg": 79.1999,
      "mean_motion_rev_day": 15.27567636
    },
    {
      "epoch": "2026-04-26T16:55:10.545024Z",
      "apogee_km": 485.3421179164825,
      "perigee_km": 480.6838087603737,
      "latitude_deg": -1.0130950081299098e-06,
      "longitude_deg": 7.345740520366404,
      "height_km": 482.8743310740039,
      "semi_major_axis_km": 6861.149963338428,
      "eccentricity": 0.00033947,
      "inclination_deg": 43.0102,
      "raan_deg": 115.845,
      "arg_perigee_deg": 267.9784,
      "mean_anomaly_deg": 92.0679,
      "mean_motion_rev_day": 15.27592067
    }
  ]
}